{"type": "FeatureCollection", "features": [ {"type": "Feature", "properties": {"norad_id": 30196, "name": "FENGYUN 1C DEB", "group": "fengyun-1c-debris", "lat": -42.395546933207584, "lon": -117.24996758546733, "alt_km": 856.2537276004814, "timestamp": "2025-12-04T03:47:54.817842+00:00", "meta": {"OBJECT_NAME": "FENGYUN 1C DEB", "OBJECT_ID": "1999-025VD", "EPOCH": "2025-12-03T05:00:35.218080", "MEAN_MOTION": 14.25842743, "ECCENTRICITY": 0.00870639, "INCLINATION": 98.6406, "RA_OF_ASC_NODE": 69.7939, "ARG_OF_PERICENTER": 90.6041, "MEAN_ANOMALY": 300.3805, "EPHEMERIS_TYPE": 0, "CLASSIFICATION_TYPE": "U", "NORAD_CAT_ID": 30196, "ELEMENT_SET_NO": 999, "REV_AT_EPOCH": 98229, "BSTAR": 8.1433967e-05, "MEAN_MOTION_DOT": 1.59e-06, "MEAN_MOTION_DDOT": 0}, "tle": {"line1": "1 30196U 99025VD  25337.20874095  .00000159  00000+0  81434-4 0  9997", "line2": "2 30196  98.6406  69.7939 0087063  90.6041 300.3805 14.25842743982290"}}, "geometry": {"type": "Point", "coordinates": [-117.24996758546733, -42.395546933207584]}}, {"type": "Feature", "properties": {"norad_id": 30197, "name": "FENGYUN 1C DEB", "group": "fengyun-1c-debris", "lat": 74.51502417217431, "lon": -131.42949221544603, "alt_km": 799.8641951739719, "timestamp": "2025-12-04T03:47:54.817852+00:00", "meta": {"OBJECT_NAME": "FENGYUN 1C DEB", "OBJECT_ID": "1999-025VE", "EPOCH": "2025-12-03T07:55:43.497984", "MEAN_MOTION": 14.37116192, "ECCENTRICITY": 0.0056996, "INCLINATION": 98.9375, "RA_OF_ASC_NODE": 262.3239, "ARG_OF_PERICENTER": 242.9732, "MEAN_ANOMALY": 233.6886, "EPHEMERIS_TYPE": 0, "CLASSIFICATION_TYPE": "U", "NORAD_CAT_ID": 30197, "ELEMENT_SET_NO": 999, "REV_AT_EPOCH": 98351, "BSTAR": 0.0012737, "MEAN_MOTION_DOT": 3.81e-05, "MEAN_MOTION_DDOT": 0}, "tle": {"line1": "1 30197U 99025VE  25337.33036456  .00003810  00000+0  12737-2 0  9998", "line2": "2 30197  98.9375 262.3239 0056996 242.9732 233.6886 14.37116192983511"}}, "geometry": {"type": "Point", "coordinates": [-131.42949221544603, 74.51502417217431]}}, {"type": "Feature", "properties": {"norad_id": 30198, "name": "FENGYUN 1C DEB", "group": "fengyun-1c-debris", "lat": -11.657474426349463, "lon": 110.92774458681744, "alt_km": 771.6338781937038, "timestamp": "2025-12-04T03:47:54.817862+00:00", "meta": {"OBJECT_NAME": "FENGYUN 1C DEB", "OBJECT_ID": "1999-025VF", "EPOCH": "2025-12-03T08:14:15.184320", "MEAN_MOTION": 14.50087396, "ECCENTRICITY": 0.0107152, "INCLINATION": 98.4478, "RA_OF_ASC_NODE": 108.3534, "ARG_OF_PERICENTER": 226.8283, "MEAN_ANOMALY": 188.1614, "EPHEMERIS_TYPE": 0, "CLASSIFICATION_TYPE": "U", "NORAD_CAT_ID": 30198, "ELEMENT_SET_NO": 999, "REV_AT_EPOCH": 98371, "BSTAR": 0.002813, "MEAN_MOTION_DOT": 0.00011716, "MEAN_MOTION_DDOT": 0}, "tle": {"line1": "1 30198U 99025VF  25337.34323130  .00011716  00000+0  28130-2 0  9996", "line2": "2 30198  98.4478 108.3534 0107152 226.8283 188.1614 14.50087396983714"}}, "geometry": {"type": "Point", "coordinates": [110.92774458681744, -11.657474426349463]}}, {"type": "Feature", "properties": {"norad_id": 30199, "name": "FENGYUN 1C DEB", "group": "fengyun-1c-debris", "lat": 8.05955239802772, "lon": 0.8909034043443239, "alt_km": 718.9106957319918, "timestamp": "2025-12-04T03:47:54.817873+00:00", "meta": {"OBJECT_NAME": "FENGYUN 1C DEB", "OBJECT_ID": "1999-025VG", "EPOCH": "2025-12-03T01:23:23.229600", "MEAN_MOTION": 14.38417197, "ECCENTRICITY": 0.00781285, "INCLINATION": 98.3859, "RA_OF_ASC_NODE": 1.013, "ARG_OF_PERICENTER": 337.995, "MEAN_ANOMALY": 95.03, "EPHEMERIS_TYPE": 0, "CLASSIFICATION_TYPE": "U", "NORAD_CAT_ID": 30199, "ELEMENT_SET_NO": 999, "REV_AT_EPOCH": 98271, "BSTAR": 0.0013115075, "MEAN_MOTION_DOT": 4.102e-05, "MEAN_MOTION_DDOT": 0}, "tle": {"line1": "1 30199U 99025VG  25337.05790775  .00004102  00000+0  13115-2 0  9996", "line2": "2 30199  98.3859   1.0130 0078128 337.9950  95.0300 14.38417197982712"}}, "geometry": {"type": "Point", "coordinates": [0.8909034043443239, 8.05955239802772]}}, {"type": "Feature", "properties": {"norad_id": 30200, "name": "FENGYUN 1C DEB", "group": "fengyun-1c-debris", "lat": 58.679423065839785, "lon": 7.916500159634178, "alt_km": 706.0894377502318, "timestamp": "2025-12-04T03:47:54.817882+00:00", "meta": {"OBJECT_NAME": "FENGYUN 1C DEB", "OBJECT_ID": "1999-025VH", "EPOCH": "2025-12-03T12:02:47.821632", "MEAN_MOTION": 14.22265285, "ECCENTRICITY": 0.0147415, "INCLINATION": 99.1134, "RA_OF_ASC_NODE": 171.9431, "ARG_OF_PERICENTER": 125.5269, "MEAN_ANOMALY": 235.9758, "EPHEMERIS_TYPE": 0, "CLASSIFICATION_TYPE": "U", "NORAD_CAT_ID": 30200, "ELEMENT_SET_NO": 999, "REV_AT_EPOCH": 97851, "BSTAR": 0.0002214, "MEAN_MOTION_DOT": 5.03e-06, "MEAN_MOTION_DDOT": 0}, "tle": {"line1": "1 30200U 99025VH  25337.50194238  .00000503  00000+0  22140-3 0  9991", "line2": "2 30200  99.1134 171.9431 0147415 125.5269 235.9758 14.22265285978518"}}, "geometry": {"type": "Point", "coordinates": [7.916500159634178, 58.679423065839785]}}, {"type": "Feature", "properties": {"norad_id": 30201, "name": "FENGYUN 1C DEB", "group": "fengyun-1c-debris", "lat": 10.090111565665676, "lon": 110.10800964191584, "alt_km": 799.489724394658, "timestamp": "2025-12-04T03:47:54.817892+00:00", "meta": {"OBJECT_NAME": "FENGYUN 1C DEB", "OBJECT_ID": "1999-025VJ", "EPOCH": "2025-12-02T21:22:25.867488", "MEAN_MOTION": 14.22908745, "ECCENTRICITY": 0.00288934, "INCLINATION": 99.4007, "RA_OF_ASC_NODE": 110.4453, "ARG_OF_PERICENTER": 341.2921, "MEAN_ANOMALY": 18.7191, "EPHEMERIS_TYPE": 0, "CLASSIFICATION_TYPE": "U", "NORAD_CAT_ID": 30201, "ELEMENT_SET_NO": 999, "REV_AT_EPOCH": 97687, "BSTAR": 0.00057545116, "MEAN_MOTION_DOT": 1.249e-05, "MEAN_MOTION_DDOT": 0}, "tle": {"line1": "1 30201U 99025VJ  25336.89057717  .00001249  00000+0  57545-3 0  9998", "line2": "2 30201  99.4007 110.4453 0028893 341.2921  18.7191 14.22908745976873"}}, "geometry": {"type": "Point", "coordinates": [110.10800964191584, 10.090111565665676]}}, {"type": "Feature", "properties": {"norad_id": 30202, "name": "FENGYUN 1C DEB", "group": "fengyun-1c-debris", "lat": 13.981905972677712, "lon": -102.63147428251128, "alt_km": 714.8498719049194, "timestamp": "2025-12-04T03:47:54.817902+00:00", "meta": {"OBJECT_NAME": "FENGYUN 1C DEB", "OBJECT_ID": "1999-025VK", "EPOCH": "2025-12-03T05:32:35.030400", "MEAN_MOTION": 14.52075504, "ECCENTRICITY": 0.0039705, "INCLINATION": 98.6412, "RA_OF_ASC_NODE": 74.2447, "ARG_OF_PERICENTER": 88.397, "MEAN_ANOMALY": 272.1771, "EPHEMERIS_TYPE": 0, "CLASSIFICATION_TYPE": "U", "NORAD_CAT_ID": 30202, "ELEMENT_SET_NO": 999, "REV_AT_EPOCH": 98151, "BSTAR": 0.0031256, "MEAN_MOTION_DOT": 0.0001275, "MEAN_MOTION_DDOT": 0}, "tle": {"line1": "1 30202U 99025VK  25337.23096100  .00012750  00000+0  31256-2 0  9996", "line2": "2 30202  98.6412  74.2447 0039705  88.3970 272.1771 14.52075504981510"}}, "geometry": {"type": "Point", "coordinates": [-102.63147428251128, 13.981905972677712]}}, {"type": "Feature", "properties": {"norad_id": 30205, "name": "FENGYUN 1C DEB", "group": "fengyun-1c-debris", "lat": 38.21601501600954, "lon": 82.6316050319618, "alt_km": 1017.4620511901094, "timestamp": "2025-12-04T03:47:54.817912+00:00", "meta": {"OBJECT_NAME": "FENGYUN 1C DEB", "OBJECT_ID": "1999-025VN", "EPOCH": "2025-12-03T06:56:17.971296", "MEAN_MOTION": 13.88027619, "ECCENTRICITY": 0.0120651, "INCLINATION": 98.9968, "RA_OF_ASC_NODE": 88.9595, "ARG_OF_PERICENTER": 205.3942, "MEAN_ANOMALY": 173.0161, "EPHEMERIS_TYPE": 0, "CLASSIFICATION_TYPE": "U", "NORAD_CAT_ID": 30205, "ELEMENT_SET_NO": 999, "REV_AT_EPOCH": 95507, "BSTAR": 0.00052552, "MEAN_MOTION_DOT": 6.21e-06, "MEAN_MOTION_DDOT": 0}, "tle": {"line1": "1 30205U 99025VN  25337.28909689  .00000621  00000+0  52552-3 0  9996", "line2": "2 30205  98.9968  88.9595 0120651 205.3942 173.0161 13.88027619955075"}}, "geometry": {"type": "Point", "coordinates": [82.6316050319618, 38.21601501600954]}}, {"type": "Feature", "properties": {"norad_id": 30206, "name": "FENGYUN 1C DEB", "group": "fengyun-1c-debris", "lat": -62.502699438392455, "lon": 141.48170794238285, "alt_km": 839.9098680314546, "timestamp": "2025-12-04T03:47:54.817923+00:00", "meta": {"OBJECT_NAME": "FENGYUN 1C DEB", "OBJECT_ID": "1999-025VP", "EPOCH": "2025-12-02T22:30:44.908992", "MEAN_MOTION": 14.4909082, "ECCENTRICITY": 0.01465432, "INCLINATION": 98.2311, "RA_OF_ASC_NODE": 336.4376, "ARG_OF_PERICENTER": 66.1014, "MEAN_ANOMALY": 295.5454, "EPHEMERIS_TYPE": 0, "CLASSIFICATION_TYPE": "U", "NORAD_CAT_ID": 30206, "ELEMENT_SET_NO": 999, "REV_AT_EPOCH": 99259, "BSTAR": 0.00057072954, "MEAN_MOTION_DOT": 2.438e-05, "MEAN_MOTION_DDOT": 0}, "tle": {"line1": "1 30206U 99025VP  25336.93801978  .00002438  00000+0  57073-3 0  9991", "line2": "2 30206  98.2311 336.4376 0146543  66.1014 295.5454 14.49090820992595"}}, "geometry": {"type": "Point", "coordinates": [141.48170794238285, -62.502699438392455]}}, {"type": "Feature", "properties": {"norad_id": 30207, "name": "FENGYUN 1C DEB", "group": "fengyun-1c-debris", "lat": -33.87044839141006, "lon": -96.14849508298644, "alt_km": 830.2917481388877, "timestamp": "2025-12-04T03:47:54.817933+00:00", "meta": {"OBJECT_NAME": "FENGYUN 1C DEB", "OBJECT_ID": "1999-025VQ", "EPOCH": "2025-12-03T07:57:24.710400", "MEAN_MOTION": 13.79124285, "ECCENTRICITY": 0.0260237, "INCLINATION": 98.574, "RA_OF_ASC_NODE": 88.9142, "ARG_OF_PERICENTER": 173.7657, "MEAN_ANOMALY": 256.0565, "EPHEMERIS_TYPE": 0, "CLASSIFICATION_TYPE": "U", "NORAD_CAT_ID": 30207, "ELEMENT_SET_NO": 999, "REV_AT_EPOCH": 94933, "BSTAR": 0.0004638, "MEAN_MOTION_DOT": 5.74e-06, "MEAN_MOTION_DDOT": 0}, "tle": {"line1": "1 30207U 99025VQ  25337.33153600  .00000574  00000+0  46380-3 0  9997", "line2": "2 30207  98.5740  88.9142 0260237 173.7657 256.0565 13.79124285949334"}}, "geometry": {"type": "Point", "coordinates": [-96.14849508298644, -33.87044839141006]}}]}